SAR-LUPE 2              
1 31797U 07030A   26158.27128920  .00036084  00000+0  67780-3 0  9991
2 31797  98.1023 261.4897 0008841 151.2779 208.8958 15.48481198 55405
SAPPHIRE                
1 39088U 13009C   26158.26233264  .00000127  00000+0  59520-4 0  9995
2 39088  98.4259 337.9541 0009984 279.7357  80.2701 14.35237863695155
PRAETORIAN SDA_602      
1 65565U 25203A   26157.68857919  .00000042  00000+0  27365-4 0  9995
2 65565  81.3038  20.4949 0005267 214.8181 145.2631 13.84341980 37244
PRAETORIAN SDA_603      
1 65566U 25203B   26158.00114272  .00000248  00000+0  21307-3 0  9998
2 65566  81.3041  20.1143 0008879 216.4428 143.6125 13.83904526 37291
PRAETORIAN SDA_604      
1 65567U 25203C   26157.86986205  .00000115  00000+0  94039-4 0  9991
2 65567  81.3060  20.6325 0004785 222.1854 137.8934 13.83046668 37252
PRAETORIAN SDA_605      
1 65568U 25203D   26157.62110488  .00000074  00000+0  56653-4 0  9992
2 65568  81.3025  20.5357 0007549 213.3882 146.6799 13.83433600 37233
PRAETORIAN SDA_607      
1 65570U 25203F   26157.61818109  .00000120  00000+0  96989-4 0  9997
2 65570  81.3045  20.4350 0008153 218.2045 141.8535 13.84283938 37241
PRAETORIAN SDA_608      
1 65571U 25203G   26157.66431690  .00000085  00000+0  66284-4 0  9994
2 65571  81.3013  20.5501 0005287 221.8944 138.1809 13.83816093 37234
PRAETORIAN SDA_609      
1 65572U 25203H   26157.67249132  .00000184  00000+0  15421-3 0  9990
2 65572  81.3057  20.5279 0006248 214.7375 145.3374 13.84284111 37241
PRAETORIAN SDA_611      
1 65574U 25203K   26158.00263532  .00000236  00000+0  20421-3 0  9994
2 65574  81.3015  20.3515 0004917 224.7699 135.3061 13.83308106 37274
PRAETORIAN SDA_612      
1 65575U 25203L   26158.00495654  .00000240  00000+0  20179-3 0  9992
2 65575  81.3033  19.9613 0008630 215.6386 144.4196 13.85037830 37305
PRAETORIAN SDA_613      
1 65576U 25203M   26158.00537744  .00000050  00000+0  35491-4 0  9993
2 65576  81.3006  20.3391 0005054 213.3962 146.6875 13.82764326 37275
PRAETORIAN SDA_614      
1 65577U 25203N   26157.84771176  .00000069  00000+0  50739-4 0  9996
2 65577  81.3020  20.1826 0006507 213.3337 146.7411 13.84777737 37283
PRAETORIAN SDA_615      
1 65578U 25203P   26157.67750356  .00000138  00000+0  11289-3 0  9998
2 65578  81.3032  20.2980 0008424 215.5638 144.4958 13.84435227 37250
PRAETORIAN SDA_616      
1 65579U 25203Q   26158.00154426  .00000203  00000+0  17401-3 0  9998
2 65579  81.3069  20.4918 0004788 222.8154 137.2629 13.83266913 37277
PRAETORIAN SDA_617      
1 65580U 25203R   26157.66059098  .00000076  00000+0  58460-4 0  9999
2 65580  81.3044  20.6392 0006738 214.0869 145.9855 13.83149989 37239
PRAETORIAN SDA_618      
1 65581U 25203S   26158.00661679  .00000146  00000+0  11923-3 0  9993
2 65581  81.3022  19.9259 0009140 216.6351 143.4182 13.84669000 37309
PRAETORIAN SDA_619      
1 65582U 25203T   26157.67469499  .00000133  00000+0  10971-3 0  9990
2 65582  81.3053  20.5145 0007556 215.7786 144.2865 13.83804925 37872
PRAETORIAN SDA_620      
1 65583U 25203U   26157.62894729  .00000150  00000+0  12497-3 0  9998
2 65583  81.3039  20.5764 0007056 210.9775 149.0966 13.83617097 37231
PRAETORIAN SDA_621      
1 65584U 25203V   26157.67643506  .00000089  00000+0  69418-4 0  9996
2 65584  81.3027  20.4543 0006826 208.4031 151.6754 13.83800553 37240
PRAETORIAN SDA_601      
1 65585U 25203W   26158.00394237  .00000111  00000+0  90578-4 0  9996
2 65585  81.3053  20.4379 0004940 223.9337 136.1427 13.83167742 37277
