OBJECT_NAME,OBJECT_ID,EPOCH,MEAN_MOTION,ECCENTRICITY,INCLINATION,RA_OF_ASC_NODE,ARG_OF_PERICENTER,MEAN_ANOMALY,EPHEMERIS_TYPE,CLASSIFICATION_TYPE,NORAD_CAT_ID,ELEMENT_SET_NO,REV_AT_EPOCH,BSTAR,MEAN_MOTION_DOT,MEAN_MOTION_DDOT
SAR-LUPE 2,2007-030A,2026-06-07T06:30:39.386880,15.48481198,.00088412,98.1023,261.4897,151.2779,208.8958,0,U,31797,999,5540,.67780138E-3,.36084E-3,0
SAPPHIRE,2013-009C,2026-06-07T06:17:45.540096,14.35237863,.00099842,98.4259,337.9541,279.7357,80.2701,0,U,39088,999,69515,.59520271E-4,.127E-5,0
PRAETORIAN SDA_602,2025-203A,2026-06-06T16:31:33.242016,13.84341980,.00052674,81.3038,20.4949,214.8181,145.2631,0,U,65565,999,3724,.27364502E-4,.42E-6,0
PRAETORIAN SDA_603,2025-203B,2026-06-07T00:01:38.731008,13.83904526,.0008879,81.3041,20.1143,216.4428,143.6125,0,U,65566,999,3729,.21306655E-3,.248E-5,0
PRAETORIAN SDA_604,2025-203C,2026-06-06T20:52:36.081120,13.83046668,.00047845,81.3060,20.6325,222.1854,137.8934,0,U,65567,999,3725,.94039298E-4,.115E-5,0
PRAETORIAN SDA_605,2025-203D,2026-06-06T14:54:23.461632,13.83433600,.0007549,81.3025,20.5357,213.3882,146.6799,0,U,65568,999,3723,.56652945E-4,.74E-6,0
PRAETORIAN SDA_607,2025-203F,2026-06-06T14:50:10.846176,13.84283938,.00081536,81.3045,20.4350,218.2045,141.8535,0,U,65570,999,3724,.96989049E-4,.12E-5,0
PRAETORIAN SDA_608,2025-203G,2026-06-06T15:56:36.980160,13.83816093,.00052866,81.3013,20.5501,221.8944,138.1809,0,U,65571,999,3723,.66283796E-4,.85E-6,0
PRAETORIAN SDA_609,2025-203H,2026-06-06T16:08:23.250048,13.84284111,.00062484,81.3057,20.5279,214.7375,145.3374,0,U,65572,999,3724,.15421054E-3,.184E-5,0
PRAETORIAN SDA_611,2025-203K,2026-06-07T00:03:47.692512,13.83308106,.00049173,81.3015,20.3515,224.7699,135.3061,0,U,65574,999,3727,.20421082E-3,.236E-5,0
PRAETORIAN SDA_612,2025-203L,2026-06-07T00:07:08.245920,13.85037830,.00086303,81.3033,19.9613,215.6386,144.4196,0,U,65575,999,3730,.20178568E-3,.24E-5,0
PRAETORIAN SDA_613,2025-203M,2026-06-07T00:07:44.611680,13.82764326,.0005054,81.3006,20.3391,213.3962,146.6875,0,U,65576,999,3727,.3549055E-4,.5E-6,0
PRAETORIAN SDA_614,2025-203N,2026-06-06T20:20:42.296064,13.84777737,.00065076,81.3020,20.1826,213.3337,146.7411,0,U,65577,999,3728,.50739378E-4,.69E-6,0
PRAETORIAN SDA_615,2025-203P,2026-06-06T16:15:36.308448,13.84435227,.00084242,81.3032,20.2980,215.5638,144.4958,0,U,65578,999,3725,.11289178E-3,.138E-5,0
PRAETORIAN SDA_616,2025-203Q,2026-06-07T00:02:13.424064,13.83266913,.00047885,81.3069,20.4918,222.8154,137.2629,0,U,65579,999,3727,.17400653E-3,.203E-5,0
PRAETORIAN SDA_617,2025-203R,2026-06-06T15:51:15.061536,13.83149989,.00067385,81.3044,20.6392,214.0869,145.9855,0,U,65580,999,3723,.58459689E-4,.76E-6,0
PRAETORIAN SDA_618,2025-203S,2026-06-07T00:09:31.691520,13.84669000,.00091398,81.3022,19.9259,216.6351,143.4182,0,U,65581,999,3730,.11923201E-3,.146E-5,0
PRAETORIAN SDA_619,2025-203T,2026-06-06T16:11:33.647136,13.83804926,.0007556,81.3053,20.5145,215.7786,144.2865,0,U,65582,999,3787,.10970606E-3,.133E-5,0
PRAETORIAN SDA_620,2025-203U,2026-06-06T15:05:41.045856,13.83617097,.00070565,81.3039,20.5764,210.9775,149.0966,0,U,65583,999,3723,.12496555E-3,.15E-5,0
PRAETORIAN SDA_621,2025-203V,2026-06-06T16:14:03.989184,13.83800553,.0006826,81.3027,20.4543,208.4031,151.6754,0,U,65584,999,3724,.69418063E-4,.89E-6,0
PRAETORIAN SDA_601,2025-203W,2026-06-07T00:05:40.621632,13.83167742,.00049399,81.3053,20.4379,223.9337,136.1427,0,U,65585,999,3727,.9057782E-4,.111E-5,0
